{
  "type": "FeatureCollection",
  "features": [
    {
      "type": "Feature",
      "properties": {
        "norad_id": 30162,
        "name": "FENGYUN 1C DEB",
        "group": "fengyun-1c-debris",
        "lat": -65.77173475271475,
        "lon": 66.95691374096225,
        "alt_km": 915.7356965354484,
        "timestamp": "2025-12-15T04:01:20.725883+00:00",
        "meta_object_name": "FENGYUN 1C DEB",
        "meta_object_id": "1999-025TT",
        "meta_epoch": "2025-12-14T03:47:17.609280",
        "meta_mean_motion": 13.53404963,
        "meta_eccentricity": 0.03136933,
        "meta_inclination": 99.4888,
        "meta_ra_of_asc_node": 44.1711,
        "meta_arg_of_pericenter": 345.9913,
        "meta_mean_anomaly": 71.9342,
        "meta_ephemeris_type": 0,
        "meta_classification_type": "U",
        "meta_norad_cat_id": 30162,
        "meta_element_set_no": 999,
        "meta_rev_at_epoch": 92680,
        "meta_bstar": 0.0029457162,
        "meta_mean_motion_dot": 2.658e-05,
        "meta_mean_motion_ddot": 0,
        "tle_line1": "1 30162U 99025TT  25348.15784270  .00002658  00000+0  29457-2 0  9992",
        "tle_line2": "2 30162  99.4888  44.1711 0313693 345.9913  71.9342 13.53404963926806"
      },
      "geometry": {
        "type": "Point",
        "coordinates": [
          66.95691374096225,
          -65.77173475271475
        ]
      }
    },
    {
      "type": "Feature",
      "properties": {
        "norad_id": 30163,
        "name": "FENGYUN 1C DEB",
        "group": "fengyun-1c-debris",
        "lat": 3.405988998134997,
        "lon": -75.56065922171886,
        "alt_km": 929.9608481931691,
        "timestamp": "2025-12-15T04:01:20.725894+00:00",
        "meta_object_name": "FENGYUN 1C DEB",
        "meta_object_id": "1999-025TU",
        "meta_epoch": "2025-12-14T07:41:38.053248",
        "meta_mean_motion": 13.38788008,
        "meta_eccentricity": 0.03736276,
        "meta_inclination": 98.7002,
        "meta_ra_of_asc_node": 103.1894,
        "meta_arg_of_pericenter": 228.5081,
        "meta_mean_anomaly": 190.941,
        "meta_ephemeris_type": 0,
        "meta_classification_type": "U",
        "meta_norad_cat_id": 30163,
        "meta_element_set_no": 999,
        "meta_rev_at_epoch": 91966,
        "meta_bstar": 0.0025835206,
        "meta_mean_motion_dot": 2.033e-05,
        "meta_mean_motion_ddot": 0,
        "tle_line1": "1 30163U 99025TU  25348.32057932  .00002033  00000+0  25835-2 0  9993",
        "tle_line2": "2 30163  98.7002 103.1894 0373627 228.5081 190.9410 13.38788008919662"
      },
      "geometry": {
        "type": "Point",
        "coordinates": [
          -75.56065922171886,
          3.405988998134997
        ]
      }
    },
    {
      "type": "Feature",
      "properties": {
        "norad_id": 30167,
        "name": "FENGYUN 1C DEB",
        "group": "fengyun-1c-debris",
        "lat": 4.499985885153544,
        "lon": 73.77656760041923,
        "alt_km": 813.5357945588376,
        "timestamp": "2025-12-15T04:01:20.725905+00:00",
        "meta_object_name": "FENGYUN 1C DEB",
        "meta_object_id": "1999-025TY",
        "meta_epoch": "2025-12-14T05:02:37.386816",
        "meta_mean_motion": 14.48549693,
        "meta_eccentricity": 0.01441905,
        "meta_inclination": 98.9677,
        "meta_ra_of_asc_node": 73.4723,
        "meta_arg_of_pericenter": 150.0817,
        "meta_mean_anomaly": 265.5943,
        "meta_ephemeris_type": 0,
        "meta_classification_type": "U",
        "meta_norad_cat_id": 30167,
        "meta_element_set_no": 999,
        "meta_rev_at_epoch": 99380,
        "meta_bstar": 0.00062399248,
        "meta_mean_motion_dot": 2.619e-05,
        "meta_mean_motion_ddot": 0,
        "tle_line1": "1 30167U 99025TY  25348.21015494  .00002619  00000+0  62399-3 0  9999",
        "tle_line2": "2 30167  98.9677  73.4723 0144190 150.0817 265.5943 14.48549693993808"
      },
      "geometry": {
        "type": "Point",
        "coordinates": [
          73.77656760041923,
          4.499985885153544
        ]
      }
    },
    {
      "type": "Feature",
      "properties": {
        "norad_id": 30168,
        "name": "FENGYUN 1C DEB",
        "group": "fengyun-1c-debris",
        "lat": 66.21728091127929,
        "lon": -101.6194919596604,
        "alt_km": 650.1982998007834,
        "timestamp": "2025-12-15T04:01:20.725915+00:00",
        "meta_object_name": "FENGYUN 1C DEB",
        "meta_object_id": "1999-025TZ",
        "meta_epoch": "2025-12-14T04:21:56.906496",
        "meta_mean_motion": 14.52905435,
        "meta_eccentricity": 0.01005106,
        "meta_inclination": 97.3903,
        "meta_ra_of_asc_node": 60.3828,
        "meta_arg_of_pericenter": 149.5254,
        "meta_mean_anomaly": 211.1839,
        "meta_ephemeris_type": 0,
        "meta_classification_type": "U",
        "meta_norad_cat_id": 30168,
        "meta_element_set_no": 999,
        "meta_rev_at_epoch": 98332,
        "meta_bstar": 0.0020923732,
        "meta_mean_motion_dot": 9.178e-05,
        "meta_mean_motion_ddot": 0,
        "tle_line1": "1 30168U 99025TZ  25348.18190864  .00009178  00000+0  20924-2 0  9995",
        "tle_line2": "2 30168  97.3903  60.3828 0100510 149.5254 211.1839 14.52905435983323"
      },
      "geometry": {
        "type": "Point",
        "coordinates": [
          -101.6194919596604,
          66.21728091127929
        ]
      }
    },
    {
      "type": "Feature",
      "properties": {
        "norad_id": 30169,
        "name": "FENGYUN 1C DEB",
        "group": "fengyun-1c-debris",
        "lat": -19.394227159804267,
        "lon": 61.60008639749359,
        "alt_km": 779.3375470378314,
        "timestamp": "2025-12-15T04:01:20.725925+00:00",
        "meta_object_name": "FENGYUN 1C DEB",
        "meta_object_id": "1999-025UA",
        "meta_epoch": "2025-12-14T03:43:35.263200",
        "meta_mean_motion": 14.58146381,
        "meta_eccentricity": 0.02131055,
        "meta_inclination": 98.3367,
        "meta_ra_of_asc_node": 57.6255,
        "meta_arg_of_pericenter": 222.6908,
        "meta_mean_anomaly": 204.7171,
        "meta_ephemeris_type": 0,
        "meta_classification_type": "U",
        "meta_norad_cat_id": 30169,
        "meta_element_set_no": 999,
        "meta_rev_at_epoch": 97744,
        "meta_bstar": 0.0028012616,
        "meta_mean_motion_dot": 0.00017665,
        "meta_mean_motion_ddot": 0,
        "tle_line1": "1 30169U 99025UA  25348.15526925  .00017665  00000+0  28013-2 0  9991",
        "tle_line2": "2 30169  98.3367  57.6255 0213105 222.6908 204.7171 14.58146381977442"
      },
      "geometry": {
        "type": "Point",
        "coordinates": [
          61.60008639749359,
          -19.394227159804267
        ]
      }
    },
    {
      "type": "Feature",
      "properties": {
        "norad_id": 30170,
        "name": "FENGYUN 1C DEB",
        "group": "fengyun-1c-debris",
        "lat": -21.01013955933547,
        "lon": 152.6924228139376,
        "alt_km": 875.3963466365394,
        "timestamp": "2025-12-15T04:01:20.725935+00:00",
        "meta_object_name": "FENGYUN 1C DEB",
        "meta_object_id": "1999-025UB",
        "meta_epoch": "2025-12-13T12:11:05.812224",
        "meta_mean_motion": 14.00309817,
        "meta_eccentricity": 0.00769807,
        "meta_inclination": 98.8488,
        "meta_ra_of_asc_node": 334.5161,
        "meta_arg_of_pericenter": 272.4849,
        "meta_mean_anomaly": 206.3646,
        "meta_ephemeris_type": 0,
        "meta_classification_type": "U",
        "meta_norad_cat_id": 30170,
        "meta_element_set_no": 999,
        "meta_rev_at_epoch": 96426,
        "meta_bstar": 0.00067044399,
        "meta_mean_motion_dot": 9.74e-06,
        "meta_mean_motion_ddot": 0,
        "tle_line1": "1 30170U 99025UB  25347.50770616  .00000974  00000+0  67044-3 0  9992",
        "tle_line2": "2 30170  98.8488 334.5161 0076980 272.4849 206.3646 14.00309817964264"
      },
      "geometry": {
        "type": "Point",
        "coordinates": [
          152.6924228139376,
          -21.01013955933547
        ]
      }
    },
    {
      "type": "Feature",
      "properties": {
        "norad_id": 30171,
        "name": "FENGYUN 1C DEB",
        "group": "fengyun-1c-debris",
        "lat": 34.834066871822856,
        "lon": -159.23735533966976,
        "alt_km": 995.6715450172569,
        "timestamp": "2025-12-15T04:01:20.725945+00:00",
        "meta_object_name": "FENGYUN 1C DEB",
        "meta_object_id": "1999-025UC",
        "meta_epoch": "2025-12-14T03:47:02.353632",
        "meta_mean_motion": 13.96859288,
        "meta_eccentricity": 0.01844042,
        "meta_inclination": 98.3978,
        "meta_ra_of_asc_node": 205.7399,
        "meta_arg_of_pericenter": 263.4027,
        "meta_mean_anomaly": 94.6118,
        "meta_ephemeris_type": 0,
        "meta_classification_type": "U",
        "meta_norad_cat_id": 30171,
        "meta_element_set_no": 999,
        "meta_rev_at_epoch": 96290,
        "meta_bstar": 0.0002931967,
        "meta_mean_motion_dot": 4.3e-06,
        "meta_mean_motion_ddot": 0,
        "tle_line1": "1 30171U 99025UC  25348.15766613  .00000430  00000+0  29320-3 0  9999",
        "tle_line2": "2 30171  98.3978 205.7399 0184404 263.4027  94.6118 13.96859288962902"
      },
      "geometry": {
        "type": "Point",
        "coordinates": [
          -159.23735533966976,
          34.834066871822856
        ]
      }
    }
  ]
}